start=new Date('2022-10-08T00:00:00.000Z').valueOf();
sats=[{"ARG_OF_PERICENTER":"83.6545","COUNTRY_CODE":"US","MEAN_ELEMENT_THEORY":"SGP4","OBJECT_NAME":"STARLINK-5041","TIME_SYSTEM":"UTC","ECCENTRICITY":"0.00014760","FILE":"3595773","REV_AT_EPOCH":"130","RA_OF_ASC_NODE":"188.9064","MEAN_MOTION":"15.73214405","REF_FRAME":"TEME","RCS_SIZE":null,"LAUNCH_DATE":"2022-09-24","TLE_LINE1":"1 53891U 22119F   22280.91667824 -.00228171  00000-0 -16647-2 0  9997","MEAN_ANOMALY":"57.7222","TLE_LINE2":"2 53891  53.2224 188.9064 0001476  83.6545  57.7222 15.73214405  1302","OBJECT_TYPE":"PAYLOAD","APOAPSIS":"350.712","MEAN_MOTION_DDOT":"0.0000000000000","EPOCH":"2022-10-07T22:00:00.999936","GP_ID":"214438894","DECAY_DATE":null,"CLASSIFICATION_TYPE":"U","INCLINATION":"53.2224","PERIAPSIS":"348.726","NORAD_CAT_ID":"53891","MEAN_MOTION_DOT":"-0.00228171","ELEMENT_SET_NO":"999","BSTAR":"-0.00166470000000","SITE":"AFETR","CENTER_NAME":"EARTH","PERIOD":"91.532","SEMIMAJOR_AXIS":"6727.854","EPHEMERIS_TYPE":"0","OBJECT_ID":"2022-119F"},{"TIME_SYSTEM":"UTC","ECCENTRICITY":"0.00032610","FILE":"3595773","REV_AT_EPOCH":"130","RA_OF_ASC_NODE":"188.8972","COUNTRY_CODE":"US","ARG_OF_PERICENTER":"304.5754","MEAN_ELEMENT_THEORY":"SGP4","OBJECT_NAME":"STARLINK-5046","LAUNCH_DATE":"2022-09-24","MEAN_MOTION":"15.73457892","REF_FRAME":"TEME","RCS_SIZE":null,"TLE_LINE1":"1 53892U 22119G   22280.91667824  .00061723  00000-0  43606-3 0  9990","MEAN_ANOMALY":"200.9302","OBJECT_TYPE":"PAYLOAD","TLE_LINE2":"2 53892  53.2244 188.8972 0003261 304.5754 200.9302 15.73457892  1303","EPOCH":"2022-10-07T22:00:00.999936","GP_ID":"214438492","DECAY_DATE":null,"CLASSIFICATION_TYPE":"U","APOAPSIS":"351.219","MEAN_MOTION_DDOT":"0.0000000000000","BSTAR":"0.00043606000000","ELEMENT_SET_NO":"999","SITE":"AFETR","INCLINATION":"53.2244","PERIAPSIS":"346.831","NORAD_CAT_ID":"53892","MEAN_MOTION_DOT":"0.00061723","CENTER_NAME":"EARTH","SEMIMAJOR_AXIS":"6727.160","EPHEMERIS_TYPE":"0","OBJECT_ID":"2022-119G","PERIOD":"91.518"},{"OBJECT_ID":"2022-119H","EPHEMERIS_TYPE":"0","SEMIMAJOR_AXIS":"6727.757","PERIOD":"91.530","CENTER_NAME":"EARTH","SITE":"AFETR","BSTAR":"-0.00003131000000","ELEMENT_SET_NO":"999","MEAN_MOTION_DOT":"-0.00005022","PERIAPSIS":"348.558","NORAD_CAT_ID":"53893","INCLINATION":"53.2188","DECAY_DATE":null,"CLASSIFICATION_TYPE":"U","GP_ID":"214439059","EPOCH":"2022-10-07T22:00:00.999936","APOAPSIS":"350.687","MEAN_MOTION_DDOT":"0.0000000000000","OBJECT_TYPE":"PAYLOAD","TLE_LINE2":"2 53893  53.2188 188.9025 0001582 125.9418  16.8802 15.73248395  1302","MEAN_ANOMALY":"16.8802","TLE_LINE1":"1 53893U 22119H   22280.91667824 -.00005022  00000-0 -31310-4 0  9993","LAUNCH_DATE":"2022-09-24","RCS_SIZE":null,"REF_FRAME":"TEME","MEAN_MOTION":"15.73248395","RA_OF_ASC_NODE":"188.9025","REV_AT_EPOCH":"130","FILE":"3595773","ECCENTRICITY":"0.00015820","TIME_SYSTEM":"UTC","OBJECT_NAME":"STARLINK-5052","MEAN_ELEMENT_THEORY":"SGP4","ARG_OF_PERICENTER":"125.9418","COUNTRY_CODE":"US"},{"MEAN_MOTION_DOT":"-0.00250083","INCLINATION":"53.2222","NORAD_CAT_ID":"53894","PERIAPSIS":"348.813","ELEMENT_SET_NO":"999","BSTAR":"-0.00182880000000","SITE":"AFETR","MEAN_MOTION_DDOT":"0.0000000000000","APOAPSIS":"350.555","CLASSIFICATION_TYPE":"U","DECAY_DATE":null,"GP_ID":"214438329","EPOCH":"2022-10-07T22:00:00.999936","PERIOD":"91.532","OBJECT_ID":"2022-119J","EPHEMERIS_TYPE":"0","SEMIMAJOR_AXIS":"6727.819","CENTER_NAME":"EARTH","RCS_SIZE":null,"MEAN_MOTION":"15.73226724","REF_FRAME":"TEME","LAUNCH_DATE":"2022-09-24","MEAN_ELEMENT_THEORY":"SGP4","OBJECT_NAME":"STARLINK-5043","ARG_OF_PERICENTER":"83.5730","COUNTRY_CODE":"US","FILE":"3595773","REV_AT_EPOCH":"130","RA_OF_ASC_NODE":"188.9050","TIME_SYSTEM":"UTC","ECCENTRICITY":"0.00012950","TLE_LINE2":"2 53894  53.2222 188.9050 0001295  83.5730  58.4034 15.73226724  1308","OBJECT_TYPE":"PAYLOAD","TLE_LINE1":"1 53894U 22119J   22280.91667824 -.00250083  00000-0 -18288-2 0  9990","MEAN_ANOMALY":"58.4034"},{"DECAY_DATE":null,"CLASSIFICATION_TYPE":"U","EPOCH":"2022-10-07T22:00:00.999936","GP_ID":"214438657","APOAPSIS":"350.789","MEAN_MOTION_DDOT":"0.0000000000000","SITE":"AFETR","ELEMENT_SET_NO":"999","BSTAR":"-0.00068352000000","MEAN_MOTION_DOT":"-0.00095292","PERIAPSIS":"348.979","NORAD_CAT_ID":"53895","INCLINATION":"53.2214","CENTER_NAME":"EARTH","EPHEMERIS_TYPE":"0","OBJECT_ID":"2022-119K","SEMIMAJOR_AXIS":"6728.019","PERIOD":"91.536","REV_AT_EPOCH":"130","RA_OF_ASC_NODE":"188.9012","FILE":"3595773","ECCENTRICITY":"0.00013450","TIME_SYSTEM":"UTC","OBJECT_NAME":"STARLINK-5032","MEAN_ELEMENT_THEORY":"SGP4","COUNTRY_CODE":"US","ARG_OF_PERICENTER":"85.1673","LAUNCH_DATE":"2022-09-24","RCS_SIZE":null,"REF_FRAME":"TEME","MEAN_MOTION":"15.73156713","MEAN_ANOMALY":"58.4336","TLE_LINE1":"1 53895U 22119K   22280.91667824 -.00095292  00000-0 -68352-3 0  9998","OBJECT_TYPE":"PAYLOAD","TLE_LINE2":"2 53895  53.2214 188.9012 0001345  85.1673  58.4336 15.73156713  1303"},{"ELEMENT_SET_NO":"999","BSTAR":"-0.00031202000000","SITE":"AFETR","INCLINATION":"53.2204","PERIAPSIS":"345.200","NORAD_CAT_ID":"53896","MEAN_MOTION_DOT":"-0.00044246","GP_ID":"214438075","EPOCH":"2022-10-07T22:00:00.999936","DECAY_DATE":null,"CLASSIFICATION_TYPE":"U","APOAPSIS":"354.346","MEAN_MOTION_DDOT":"0.0000000000000","SEMIMAJOR_AXIS":"6727.908","OBJECT_ID":"2022-119L","EPHEMERIS_TYPE":"0","PERIOD":"91.533","CENTER_NAME":"EARTH","LAUNCH_DATE":"2022-09-24","MEAN_MOTION":"15.73195602","REF_FRAME":"TEME","RCS_SIZE":null,"TIME_SYSTEM":"UTC","ECCENTRICITY":"0.00067970","FILE":"3595773","REV_AT_EPOCH":"130","RA_OF_ASC_NODE":"188.9009","ARG_OF_PERICENTER":"268.3178","COUNTRY_CODE":"US","MEAN_ELEMENT_THEORY":"SGP4","OBJECT_NAME":"STARLINK-5037","OBJECT_TYPE":"PAYLOAD","TLE_LINE2":"2 53896  53.2204 188.9009 0006797 268.3178 236.4782 15.73195602  1303","TLE_LINE1":"1 53896U 22119L   22280.91667824 -.00044246  00000-0 -31202-3 0  9996","MEAN_ANOMALY":"236.4782"},{"MEAN_MOTION_DDOT":"0.0000000000000","APOAPSIS":"350.745","DECAY_DATE":null,"CLASSIFICATION_TYPE":"U","GP_ID":"214438821","EPOCH":"2022-10-07T22:00:00.999936","MEAN_MOTION_DOT":"-0.00046072","INCLINATION":"53.2199","NORAD_CAT_ID":"53897","PERIAPSIS":"348.747","BSTAR":"-0.00032557000000","ELEMENT_SET_NO":"999","SITE":"AFETR","CENTER_NAME":"EARTH","PERIOD":"91.533","OBJECT_ID":"2022-119M","EPHEMERIS_TYPE":"0","SEMIMAJOR_AXIS":"6727.881","MEAN_ELEMENT_THEORY":"SGP4","OBJECT_NAME":"STARLINK-5035","COUNTRY_CODE":"US","ARG_OF_PERICENTER":"132.3383","FILE":"3595773","REV_AT_EPOCH":"130","RA_OF_ASC_NODE":"188.9045","TIME_SYSTEM":"UTC","ECCENTRICITY":"0.00014850","RCS_SIZE":null,"MEAN_MOTION":"15.73205001","REF_FRAME":"TEME","LAUNCH_DATE":"2022-09-24","TLE_LINE1":"1 53897U 22119M   22280.91667824 -.00046072  00000-0 -32557-3 0  9990","MEAN_ANOMALY":"10.0603","TLE_LINE2":"2 53897  53.2199 188.9045 0001485 132.3383  10.0603 15.73205001  1307","OBJECT_TYPE":"PAYLOAD"},{"DECAY_DATE":null,"CLASSIFICATION_TYPE":"U","GP_ID":"214437911","EPOCH":"2022-10-07T22:00:00.999936","APOAPSIS":"351.478","MEAN_MOTION_DDOT":"0.0000000000000","ELEMENT_SET_NO":"999","BSTAR":"0.00044665000000","SITE":"AFETR","MEAN_MOTION_DOT":"0.00061966","INCLINATION":"53.2229","NORAD_CAT_ID":"53898","PERIAPSIS":"349.239","CENTER_NAME":"EARTH","OBJECT_ID":"2022-119N","EPHEMERIS_TYPE":"0","SEMIMAJOR_AXIS":"6728.494","PERIOD":"91.545","FILE":"3595773","REV_AT_EPOCH":"130","RA_OF_ASC_NODE":"188.8964","TIME_SYSTEM":"UTC","ECCENTRICITY":"0.00016640","MEAN_ELEMENT_THEORY":"SGP4","OBJECT_NAME":"STARLINK-5044","COUNTRY_CODE":"US","ARG_OF_PERICENTER":"41.8314","LAUNCH_DATE":"2022-09-24","RCS_SIZE":null,"MEAN_MOTION":"15.72990079","REF_FRAME":"TEME","TLE_LINE1":"1 53898U 22119N   22280.91667824  .00061966  00000-0  44665-3 0  9991","MEAN_ANOMALY":"105.3424","OBJECT_TYPE":"PAYLOAD","TLE_LINE2":"2 53898  53.2229 188.8964 0001664  41.8314 105.3424 15.72990079  1302"},{"PERIOD":"91.534","SEMIMAJOR_AXIS":"6727.922","OBJECT_ID":"2022-119P","EPHEMERIS_TYPE":"0","CENTER_NAME":"EARTH","INCLINATION":"53.2212","NORAD_CAT_ID":"53899","PERIAPSIS":"348.612","MEAN_MOTION_DOT":"0.00011841","BSTAR":"0.00008869900000","ELEMENT_SET_NO":"999","SITE":"AFETR","APOAPSIS":"350.961","MEAN_MOTION_DDOT":"0.0000000000000","EPOCH":"2022-10-07T22:00:00.999936","GP_ID":"214438895","CLASSIFICATION_TYPE":"U","DECAY_DATE":null,"TLE_LINE2":"2 53899  53.2212 188.8991 0001746 295.4702 210.5513 15.73190719  1306","OBJECT_TYPE":"PAYLOAD","TLE_LINE1":"1 53899U 22119P   22280.91667824  .00011841  00000-0  88699-4 0  9995","MEAN_ANOMALY":"210.5513","MEAN_MOTION":"15.73190719","REF_FRAME":"TEME","RCS_SIZE":null,"LAUNCH_DATE":"2022-09-24","COUNTRY_CODE":"US","ARG_OF_PERICENTER":"295.4702","MEAN_ELEMENT_THEORY":"SGP4","OBJECT_NAME":"STARLINK-5042","TIME_SYSTEM":"UTC","ECCENTRICITY":"0.00017460","FILE":"3595773","REV_AT_EPOCH":"130","RA_OF_ASC_NODE":"188.8991"},{"COUNTRY_CODE":"US","ARG_OF_PERICENTER":"317.3338","OBJECT_NAME":"STARLINK-5045","MEAN_ELEMENT_THEORY":"SGP4","ECCENTRICITY":"0.00017410","TIME_SYSTEM":"UTC","REV_AT_EPOCH":"130","RA_OF_ASC_NODE":"188.8903","FILE":"3595773","REF_FRAME":"TEME","MEAN_MOTION":"15.73085174","RCS_SIZE":null,"LAUNCH_DATE":"2022-09-24","MEAN_ANOMALY":"191.2643","TLE_LINE1":"1 53900U 22119Q   22280.91667824 -.00178477  00000-0 -13007-2 0  9998","TLE_LINE2":"2 53900  53.2239 188.8903 0001741 317.3338 191.2643 15.73085174  1302","OBJECT_TYPE":"PAYLOAD","APOAPSIS":"351.259","MEAN_MOTION_DDOT":"0.0000000000000","EPOCH":"2022-10-07T22:00:00.999936","GP_ID":"214438493","DECAY_DATE":null,"CLASSIFICATION_TYPE":"U","NORAD_CAT_ID":"53900","PERIAPSIS":"348.916","INCLINATION":"53.2239","MEAN_MOTION_DOT":"-0.00178477","SITE":"AFETR","ELEMENT_SET_NO":"999","BSTAR":"-0.00130070000000","CENTER_NAME":"EARTH","PERIOD":"91.540","SEMIMAJOR_AXIS":"6728.223","OBJECT_ID":"2022-119Q","EPHEMERIS_TYPE":"0"}];
